{
  "type": "FeatureCollection",
  "features": [
    {
      "type": "Feature",
      "properties": {
        "norad_id": 33886,
        "name": "IRIDIUM 33 DEB",
        "group": "iridium-33-debris",
        "lat": -80.37190299162172,
        "lon": 48.252887380383775,
        "alt_km": 770.5699956856861,
        "timestamp": "2025-12-05T19:30:25.951370+00:00",
        "meta_object_name": "IRIDIUM 33 DEB",
        "meta_object_id": "1997-051BF",
        "meta_epoch": "2025-12-05T06:45:14.644800",
        "meta_mean_motion": 14.36037798,
        "meta_eccentricity": 0.00120662,
        "meta_inclination": 86.3832,
        "meta_ra_of_asc_node": 70.3676,
        "meta_arg_of_pericenter": 270.3653,
        "meta_mean_anomaly": 143.1973,
        "meta_ephemeris_type": 0,
        "meta_classification_type": "U",
        "meta_norad_cat_id": 33886,
        "meta_element_set_no": 999,
        "meta_rev_at_epoch": 87945,
        "meta_bstar": 0.00038937053,
        "meta_mean_motion_dot": 1.152e-05,
        "meta_mean_motion_ddot": 0,
        "tle_line1": "1 33886U 97051BF  25339.28141950  .00001152  00000+0  38937-3 0  9993",
        "tle_line2": "2 33886  86.3832  70.3676 0012066 270.3653 143.1973 14.36037798879459"
      },
      "geometry": {
        "type": "Point",
        "coordinates": [
          48.252887380383775,
          -80.37190299162172
        ]
      }
    },
    {
      "type": "Feature",
      "properties": {
        "norad_id": 33887,
        "name": "IRIDIUM 33 DEB",
        "group": "iridium-33-debris",
        "lat": -6.072116425970607,
        "lon": -173.2287153558498,
        "alt_km": 770.7752322870301,
        "timestamp": "2025-12-05T19:30:25.951380+00:00",
        "meta_object_name": "IRIDIUM 33 DEB",
        "meta_object_id": "1997-051BG",
        "meta_epoch": "2025-12-05T02:10:58.097280",
        "meta_mean_motion": 14.37210895,
        "meta_eccentricity": 0.00040537,
        "meta_inclination": 86.3049,
        "meta_ra_of_asc_node": 6.6883,
        "meta_arg_of_pericenter": 263.1324,
        "meta_mean_anomaly": 150.4166,
        "meta_ephemeris_type": 0,
        "meta_classification_type": "U",
        "meta_norad_cat_id": 33887,
        "meta_element_set_no": 999,
        "meta_rev_at_epoch": 88055,
        "meta_bstar": 0.00027532923,
        "meta_mean_motion_dot": 8.39e-06,
        "meta_mean_motion_ddot": 0,
        "tle_line1": "1 33887U 97051BG  25339.09095020  .00000839  00000+0  27533-3 0  9990",
        "tle_line2": "2 33887  86.3049   6.6883 0004053 263.1324 150.4166 14.37210895880554"
      },
      "geometry": {
        "type": "Point",
        "coordinates": [
          -173.2287153558498,
          -6.072116425970607
        ]
      }
    },
    {
      "type": "Feature",
      "properties": {
        "norad_id": 33953,
        "name": "IRIDIUM 33 DEB",
        "group": "iridium-33-debris",
        "lat": -48.01056020779765,
        "lon": 52.75847276496891,
        "alt_km": 728.5904526560298,
        "timestamp": "2025-12-05T19:30:25.951392+00:00",
        "meta_object_name": "IRIDIUM 33 DEB",
        "meta_object_id": "1997-051BN",
        "meta_epoch": "2025-12-05T05:08:31.951680",
        "meta_mean_motion": 14.55204828,
        "meta_eccentricity": 0.00185403,
        "meta_inclination": 86.3853,
        "meta_ra_of_asc_node": 57.0454,
        "meta_arg_of_pericenter": 125.7223,
        "meta_mean_anomaly": 292.6606,
        "meta_ephemeris_type": 0,
        "meta_classification_type": "U",
        "meta_norad_cat_id": 33953,
        "meta_element_set_no": 999,
        "meta_rev_at_epoch": 88194,
        "meta_bstar": 0.0025544132,
        "meta_mean_motion_dot": 0.00011099,
        "meta_mean_motion_ddot": 0,
        "tle_line1": "1 33953U 97051BN  25339.21425870  .00011099  00000+0  25544-2 0  9997",
        "tle_line2": "2 33953  86.3853  57.0454 0018540 125.7223 292.6606 14.55204828881943"
      },
      "geometry": {
        "type": "Point",
        "coordinates": [
          52.75847276496891,
          -48.01056020779765
        ]
      }
    },
    {
      "type": "Feature",
      "properties": {
        "norad_id": 33960,
        "name": "IRIDIUM 33 DEB",
        "group": "iridium-33-debris",
        "lat": 80.84786780644372,
        "lon": 88.77736026426656,
        "alt_km": 603.0079441091093,
        "timestamp": "2025-12-05T19:30:25.951403+00:00",
        "meta_object_name": "IRIDIUM 33 DEB",
        "meta_object_id": "1997-051BV",
        "meta_epoch": "2025-12-04T20:40:23.161152",
        "meta_mean_motion": 14.84544482,
        "meta_eccentricity": 0.0007097,
        "meta_inclination": 86.2533,
        "meta_ra_of_asc_node": 293.2261,
        "meta_arg_of_pericenter": 73.4726,
        "meta_mean_anomaly": 343.2851,
        "meta_ephemeris_type": 0,
        "meta_classification_type": "U",
        "meta_norad_cat_id": 33960,
        "meta_element_set_no": 999,
        "meta_rev_at_epoch": 88750,
        "meta_bstar": 0.00599,
        "meta_mean_motion_dot": 0.00050871,
        "meta_mean_motion_ddot": 0,
        "tle_line1": "1 33960U 97051BV  25338.86137918  .00050871  00000+0  59900-2 0  9992",
        "tle_line2": "2 33960  86.2533 293.2261 0007097  73.4726 343.2851 14.84544482887505"
      },
      "geometry": {
        "type": "Point",
        "coordinates": [
          88.77736026426656,
          80.84786780644372
        ]
      }
    },
    {
      "type": "Feature",
      "properties": {
        "norad_id": 33966,
        "name": "IRIDIUM 33 DEB",
        "group": "iridium-33-debris",
        "lat": -39.92773771540009,
        "lon": -127.97395958957581,
        "alt_km": 729.086798266615,
        "timestamp": "2025-12-05T19:30:25.951413+00:00",
        "meta_object_name": "IRIDIUM 33 DEB",
        "meta_object_id": "1997-051CB",
        "meta_epoch": "2025-12-05T05:29:23.839296",
        "meta_mean_motion": 14.49544944,
        "meta_eccentricity": 0.0006567,
        "meta_inclination": 86.3933,
        "meta_ra_of_asc_node": 49.2505,
        "meta_arg_of_pericenter": 214.8574,
        "meta_mean_anomaly": 199.2103,
        "meta_ephemeris_type": 0,
        "meta_classification_type": "U",
        "meta_norad_cat_id": 33966,
        "meta_element_set_no": 999,
        "meta_rev_at_epoch": 88333,
        "meta_bstar": 0.0011929971,
        "meta_mean_motion_dot": 4.595e-05,
        "meta_mean_motion_ddot": 0,
        "tle_line1": "1 33966U 97051CB  25339.22874814  .00004595  00000+0  11930-2 0  9995",
        "tle_line2": "2 33966  86.3933  49.2505 0006567 214.8574 199.2103 14.49544944883339"
      },
      "geometry": {
        "type": "Point",
        "coordinates": [
          -127.97395958957581,
          -39.92773771540009
        ]
      }
    },
    {
      "type": "Feature",
      "properties": {
        "norad_id": 34071,
        "name": "IRIDIUM 33 DEB",
        "group": "iridium-33-debris",
        "lat": -70.13717954212184,
        "lon": 10.651535971967121,
        "alt_km": 741.4529963897985,
        "timestamp": "2025-12-05T19:30:25.951424+00:00",
        "meta_object_name": "IRIDIUM 33 DEB",
        "meta_object_id": "1997-051CE",
        "meta_epoch": "2025-12-05T03:15:48.271968",
        "meta_mean_motion": 14.49413279,
        "meta_eccentricity": 0.00095852,
        "meta_inclination": 86.3462,
        "meta_ra_of_asc_node": 21.1335,
        "meta_arg_of_pericenter": 128.1899,
        "meta_mean_anomaly": 232.017,
        "meta_ephemeris_type": 0,
        "meta_classification_type": "U",
        "meta_norad_cat_id": 34071,
        "meta_element_set_no": 999,
        "meta_rev_at_epoch": 88224,
        "meta_bstar": 0.001361503,
        "meta_mean_motion_dot": 5.229e-05,
        "meta_mean_motion_ddot": 0,
        "tle_line1": "1 34071U 97051CE  25339.13597537  .00005229  00000+0  13615-2 0  9994",
        "tle_line2": "2 34071  86.3462  21.1335 0009585 128.1899 232.0170 14.49413279882249"
      },
      "geometry": {
        "type": "Point",
        "coordinates": [
          10.651535971967121,
          -70.13717954212184
        ]
      }
    },
    {
      "type": "Feature",
      "properties": {
        "norad_id": 34077,
        "name": "IRIDIUM 33 DEB",
        "group": "iridium-33-debris",
        "lat": 69.02114691019023,
        "lon": -134.9257297227547,
        "alt_km": 666.5526706246183,
        "timestamp": "2025-12-05T19:30:25.951434+00:00",
        "meta_object_name": "IRIDIUM 33 DEB",
        "meta_object_id": "1997-051CL",
        "meta_epoch": "2025-12-05T04:31:02.326368",
        "meta_mean_motion": 14.64651198,
        "meta_eccentricity": 0.00108445,
        "meta_inclination": 86.3871,
        "meta_ra_of_asc_node": 54.8335,
        "meta_arg_of_pericenter": 63.1605,
        "meta_mean_anomaly": 356.2545,
        "meta_ephemeris_type": 0,
        "meta_classification_type": "U",
        "meta_norad_cat_id": 34077,
        "meta_element_set_no": 999,
        "meta_rev_at_epoch": 88222,
        "meta_bstar": 0.0034104221,
        "meta_mean_motion_dot": 0.00018195,
        "meta_mean_motion_ddot": 0,
        "tle_line1": "1 34077U 97051CL  25339.18822137  .00018195  00000+0  34104-2 0  9994",
        "tle_line2": "2 34077  86.3871  54.8335 0010844  63.1605 356.2545 14.64651198882229"
      },
      "geometry": {
        "type": "Point",
        "coordinates": [
          -134.9257297227547,
          69.02114691019023
        ]
      }
    }
  ]
}